start=new Date('2023-05-26T00:00:00.000Z').valueOf();
sats=[{"MEAN_MOTION":"15.33723541","ECCENTRICITY":"0.00016290","TIME_SYSTEM":"UTC","TLE_LINE1":"1 45180U 20012C   23145.58282982  .00049517  00000-0  14986-2 0  9998","BSTAR":"0.00149860000000","EPHEMERIS_TYPE":"0","REF_FRAME":"TEME","EPOCH":"2023-05-25T13:59:16.496448","LAUNCH_DATE":"2020-02-17","SEMIMAJOR_AXIS":"6842.852","OBJECT_ID":"2020-012C","FILE":"3916968","DECAY_DATE":null,"CENTER_NAME":"EARTH","NORAD_CAT_ID":"45180","OBJECT_TYPE":"PAYLOAD","RCS_SIZE":"LARGE","ARG_OF_PERICENTER":"238.1448","REV_AT_EPOCH":"18099","SITE":"AFETR","CLASSIFICATION_TYPE":"U","INCLINATION":"53.0417","GP_ID":"232489894","MEAN_ANOMALY":"121.9394","TLE_LINE2":"2 45180  53.0417 272.6793 0001629 238.1448 121.9394 15.33723541180994","RA_OF_ASC_NODE":"272.6793","COUNTRY_CODE":"US","OBJECT_NAME":"STARLINK-1192","PERIOD":"93.889","ELEMENT_SET_NO":"999","APOAPSIS":"465.831","PERIAPSIS":"463.602","MEAN_MOTION_DDOT":"0.0000000000000","MEAN_ELEMENT_THEORY":"SGP4","MEAN_MOTION_DOT":"0.00049517"},{"REF_FRAME":"TEME","EPHEMERIS_TYPE":"0","MEAN_MOTION":"15.06407716","ECCENTRICITY":"0.00009930","BSTAR":"0.00033417000000","TLE_LINE1":"1 45181U 20012D   23145.84684579  .00004701  00000-0  33417-3 0  9993","TIME_SYSTEM":"UTC","LAUNCH_DATE":"2020-02-17","EPOCH":"2023-05-25T20:19:27.476256","FILE":"3917122","NORAD_CAT_ID":"45181","DECAY_DATE":null,"CENTER_NAME":"EARTH","OBJECT_ID":"2020-012D","SEMIMAJOR_AXIS":"6925.325","RCS_SIZE":"LARGE","OBJECT_TYPE":"PAYLOAD","ARG_OF_PERICENTER":"75.1656","REV_AT_EPOCH":"18127","SITE":"AFETR","GP_ID":"232512014","INCLINATION":"53.0553","CLASSIFICATION_TYPE":"U","PERIOD":"95.592","ELEMENT_SET_NO":"999","MEAN_ANOMALY":"284.9443","TLE_LINE2":"2 45181  53.0553 300.3799 0000993  75.1656 284.9443 15.06407716181274","OBJECT_NAME":"STARLINK-1200","COUNTRY_CODE":"US","RA_OF_ASC_NODE":"300.3799","MEAN_MOTION_DDOT":"0.0000000000000","PERIAPSIS":"546.502","MEAN_MOTION_DOT":"0.00004701","MEAN_ELEMENT_THEORY":"SGP4","APOAPSIS":"547.878"},{"MEAN_MOTION_DOT":"0.00016932","MEAN_ELEMENT_THEORY":"SGP4","MEAN_MOTION_DDOT":"0.0000000000000","PERIAPSIS":"546.503","APOAPSIS":"547.830","ELEMENT_SET_NO":"999","PERIOD":"95.591","OBJECT_NAME":"STARLINK-1201","COUNTRY_CODE":"US","RA_OF_ASC_NODE":"280.5894","MEAN_ANOMALY":"267.4654","TLE_LINE2":"2 45182  53.0538 280.5894 0000958  92.6445 267.4654 15.06415486181390","GP_ID":"232512766","INCLINATION":"53.0538","CLASSIFICATION_TYPE":"U","SITE":"AFETR","REV_AT_EPOCH":"18139","ARG_OF_PERICENTER":"92.6445","RCS_SIZE":"LARGE","OBJECT_TYPE":"PAYLOAD","NORAD_CAT_ID":"45182","DECAY_DATE":null,"CENTER_NAME":"EARTH","FILE":"3917122","SEMIMAJOR_AXIS":"6925.301","OBJECT_ID":"2020-012E","LAUNCH_DATE":"2020-02-17","EPOCH":"2023-05-25T19:13:06.707712","EPHEMERIS_TYPE":"0","REF_FRAME":"TEME","BSTAR":"0.00115240000000","TLE_LINE1":"1 45182U 20012E   23145.80077208  .00016932  00000-0  11524-2 0  9998","TIME_SYSTEM":"UTC","ECCENTRICITY":"0.00009580","MEAN_MOTION":"15.06415486"},{"MEAN_ELEMENT_THEORY":"SGP4","MEAN_MOTION_DOT":"0.00007681","PERIAPSIS":"546.578","MEAN_MOTION_DDOT":"0.0000000000000","APOAPSIS":"547.783","ELEMENT_SET_NO":"999","PERIOD":"95.591","RA_OF_ASC_NODE":"300.5151","COUNTRY_CODE":"US","OBJECT_NAME":"STARLINK-1202","MEAN_ANOMALY":"254.9914","TLE_LINE2":"2 45183  53.0540 300.5151 0000870 105.1171 254.9914 15.06410784181275","GP_ID":"232513517","CLASSIFICATION_TYPE":"U","INCLINATION":"53.0540","REV_AT_EPOCH":"18127","SITE":"AFETR","ARG_OF_PERICENTER":"105.1171","RCS_SIZE":"LARGE","OBJECT_TYPE":"PAYLOAD","CENTER_NAME":"EARTH","DECAY_DATE":null,"NORAD_CAT_ID":"45183","FILE":"3917122","SEMIMAJOR_AXIS":"6925.316","OBJECT_ID":"2020-012F","LAUNCH_DATE":"2020-02-17","EPOCH":"2023-05-25T19:36:59.811552","EPHEMERIS_TYPE":"0","REF_FRAME":"TEME","TIME_SYSTEM":"UTC","TLE_LINE1":"1 45183U 20012F   23145.81735893  .00007681  00000-0  53379-3 0  9997","BSTAR":"0.00053379000000","ECCENTRICITY":"0.00008700","MEAN_MOTION":"15.06410784"},{"PERIOD":"95.592","ELEMENT_SET_NO":"999","MEAN_ANOMALY":"284.6142","TLE_LINE2":"2 45184  53.0535 280.2547 0000960  75.4954 284.6142 15.06403531180590","OBJECT_NAME":"STARLINK-1205","COUNTRY_CODE":"US","RA_OF_ASC_NODE":"280.2547","MEAN_MOTION_DDOT":"0.0000000000000","PERIAPSIS":"546.538","MEAN_MOTION_DOT":"0.00024192","MEAN_ELEMENT_THEORY":"SGP4","APOAPSIS":"547.868","ARG_OF_PERICENTER":"75.4954","REV_AT_EPOCH":"18059","SITE":"AFETR","GP_ID":"232512265","INCLINATION":"53.0535","CLASSIFICATION_TYPE":"U","FILE":"3917122","NORAD_CAT_ID":"45184","DECAY_DATE":null,"CENTER_NAME":"EARTH","SEMIMAJOR_AXIS":"6925.338","OBJECT_ID":"2020-012G","RCS_SIZE":"LARGE","OBJECT_TYPE":"PAYLOAD","EPHEMERIS_TYPE":"0","REF_FRAME":"TEME","ECCENTRICITY":"0.00009600","MEAN_MOTION":"15.06403531","BSTAR":"0.00163730000000","TLE_LINE1":"1 45184U 20012G   23145.87449272  .00024192  00000-0  16373-2 0  9995","TIME_SYSTEM":"UTC","LAUNCH_DATE":"2020-02-17","EPOCH":"2023-05-25T20:59:16.171008"},{"ELEMENT_SET_NO":"999","PERIOD":"95.593","OBJECT_NAME":"STARLINK-1216","COUNTRY_CODE":"US","RA_OF_ASC_NODE":"300.5452","TLE_LINE2":"2 45185  53.0540 300.5452 0001276  89.4878 270.6258 15.06383425181211","MEAN_ANOMALY":"270.6258","MEAN_MOTION_DOT":"-0.00000847","MEAN_ELEMENT_THEORY":"SGP4","MEAN_MOTION_DDOT":"0.0000000000000","PERIAPSIS":"546.381","APOAPSIS":"548.148","SITE":"AFETR","REV_AT_EPOCH":"18121","ARG_OF_PERICENTER":"89.4878","GP_ID":"232512515","INCLINATION":"53.0540","CLASSIFICATION_TYPE":"U","NORAD_CAT_ID":"45185","DECAY_DATE":null,"CENTER_NAME":"EARTH","FILE":"3917122","SEMIMAJOR_AXIS":"6925.399","OBJECT_ID":"2020-012H","RCS_SIZE":"LARGE","OBJECT_TYPE":"PAYLOAD","REF_FRAME":"TEME","EPHEMERIS_TYPE":"0","TLE_LINE1":"1 45185U 20012H   23145.80996554 -.00000847  00000-0 -37994-4 0  9996","BSTAR":"-0.00003799400000","TIME_SYSTEM":"UTC","ECCENTRICITY":"0.00012760","MEAN_MOTION":"15.06383425","LAUNCH_DATE":"2020-02-17","EPOCH":"2023-05-25T19:26:21.022656"},{"REV_AT_EPOCH":"18121","SITE":"AFETR","ARG_OF_PERICENTER":"82.0219","CLASSIFICATION_TYPE":"U","INCLINATION":"53.0549","GP_ID":"232513267","RA_OF_ASC_NODE":"300.4802","OBJECT_NAME":"STARLINK-1224","COUNTRY_CODE":"US","TLE_LINE2":"2 45186  53.0549 300.4802 0000834  82.0219 278.0865 15.06407595181217","MEAN_ANOMALY":"278.0865","ELEMENT_SET_NO":"999","PERIOD":"95.592","APOAPSIS":"547.768","MEAN_ELEMENT_THEORY":"SGP4","MEAN_MOTION_DOT":"0.00004412","PERIAPSIS":"546.613","MEAN_MOTION_DDOT":"0.0000000000000","TIME_SYSTEM":"UTC","BSTAR":"0.00031483000000","TLE_LINE1":"1 45186U 20012J   23145.82473140  .00004412  00000-0  31483-3 0  9996","ECCENTRICITY":"0.00008340","MEAN_MOTION":"15.06407595","EPHEMERIS_TYPE":"0","REF_FRAME":"TEME","EPOCH":"2023-05-25T19:47:36.792960","LAUNCH_DATE":"2020-02-17","SEMIMAJOR_AXIS":"6925.325","OBJECT_ID":"2020-012J","DECAY_DATE":null,"CENTER_NAME":"EARTH","NORAD_CAT_ID":"45186","FILE":"3917122","OBJECT_TYPE":"PAYLOAD","RCS_SIZE":"LARGE"},{"INCLINATION":"53.0540","CLASSIFICATION_TYPE":"U","GP_ID":"232513017","REV_AT_EPOCH":"18126","SITE":"AFETR","ARG_OF_PERICENTER":"92.6511","APOAPSIS":"547.425","MEAN_MOTION_DOT":"0.00008767","MEAN_ELEMENT_THEORY":"SGP4","MEAN_MOTION_DDOT":"0.0000000000000","PERIAPSIS":"546.940","OBJECT_NAME":"STARLINK-1225","COUNTRY_CODE":"US","RA_OF_ASC_NODE":"300.4624","TLE_LINE2":"2 45187  53.0540 300.4624 0000350  92.6511 267.4518 15.06410181181263","MEAN_ANOMALY":"267.4518","ELEMENT_SET_NO":"999","PERIOD":"95.591","EPOCH":"2023-05-25T19:52:55.030944","LAUNCH_DATE":"2020-02-17","BSTAR":"0.00060652000000","TLE_LINE1":"1 45187U 20012K   23145.82841471  .00008767  00000-0  60652-3 0  9990","TIME_SYSTEM":"UTC","MEAN_MOTION":"15.06410181","ECCENTRICITY":"0.00003500","EPHEMERIS_TYPE":"0","REF_FRAME":"TEME","OBJECT_TYPE":"PAYLOAD","RCS_SIZE":"LARGE","OBJECT_ID":"2020-012K","SEMIMAJOR_AXIS":"6925.317","NORAD_CAT_ID":"45187","DECAY_DATE":null,"CENTER_NAME":"EARTH","FILE":"3917122"},{"PERIAPSIS":"546.257","MEAN_MOTION_DDOT":"0.0000000000000","MEAN_ELEMENT_THEORY":"SGP4","MEAN_MOTION_DOT":"0.00003892","APOAPSIS":"548.116","PERIOD":"95.592","ELEMENT_SET_NO":"999","MEAN_ANOMALY":"261.5808","TLE_LINE2":"2 45188  53.0546 261.5226 0001342  98.5333 261.5808 15.06408763180803","RA_OF_ASC_NODE":"261.5226","COUNTRY_CODE":"US","OBJECT_NAME":"STARLINK-1228","GP_ID":"232488738","CLASSIFICATION_TYPE":"U","INCLINATION":"53.0546","ARG_OF_PERICENTER":"98.5333","REV_AT_EPOCH":"18080","SITE":"AFETR","RCS_SIZE":"LARGE","OBJECT_TYPE":"PAYLOAD","FILE":"3916937","DECAY_DATE":null,"CENTER_NAME":"EARTH","NORAD_CAT_ID":"45188","OBJECT_ID":"2020-012L","SEMIMAJOR_AXIS":"6925.322","LAUNCH_DATE":"2020-02-17","EPOCH":"2023-05-25T14:13:13.834272","EPHEMERIS_TYPE":"0","REF_FRAME":"TEME","ECCENTRICITY":"0.00013420","MEAN_MOTION":"15.06408763","TIME_SYSTEM":"UTC","BSTAR":"0.00027995000000","TLE_LINE1":"1 45188U 20012L   23145.59252123  .00003892  00000-0  27995-3 0  9992"},{"REF_FRAME":"TEME","EPHEMERIS_TYPE":"0","ECCENTRICITY":"0.00007530","MEAN_MOTION":"15.06424601","BSTAR":"0.00130900000000","TLE_LINE1":"1 45189U 20012M   23144.63786160  .00019283  00000-0  13090-2 0  9991","TIME_SYSTEM":"UTC","LAUNCH_DATE":"2020-02-17","EPOCH":"2023-05-24T15:18:31.242240","FILE":"3916549","NORAD_CAT_ID":"45189","CENTER_NAME":"EARTH","DECAY_DATE":null,"SEMIMAJOR_AXIS":"6925.273","OBJECT_ID":"2020-012M","RCS_SIZE":"LARGE","OBJECT_TYPE":"PAYLOAD","ARG_OF_PERICENTER":"97.1442","REV_AT_EPOCH":"17831","SITE":"AFETR","GP_ID":"232446326","INCLINATION":"53.0540","CLASSIFICATION_TYPE":"U","PERIOD":"95.591","ELEMENT_SET_NO":"999","MEAN_ANOMALY":"262.9632","TLE_LINE2":"2 45189  53.0540 305.8079 0000753  97.1442 262.9632 15.06424601178319","OBJECT_NAME":"STARLINK-1230","COUNTRY_CODE":"US","RA_OF_ASC_NODE":"305.8079","MEAN_MOTION_DDOT":"0.0000000000000","PERIAPSIS":"546.617","MEAN_MOTION_DOT":"0.00019283","MEAN_ELEMENT_THEORY":"SGP4","APOAPSIS":"547.660"}];
